# From MPEC 2022-C56
191P/McNaught,e,8.8419,98.2325,284.0522,3.635753,0.1421715,0.38594590,50.7211,03/12.0/2022,2000,g 13.0,4.0
# From MPC 75724
192P/Shoemaker-Levy,e,24.5736,51.6123,313.0084,6.473092,0.0598462,0.77341039,311.8632,03/12.0/2022,2000,g 15.0,4.0
# From MPEC 2022-CN4
193P/LINEAR-NEAT,e,10.6885,335.1737,8.0760,3.576622,0.1457117,0.39385897,28.9699,03/12.0/2022,2000,g 14.0,4.0
# From MPC 98566
194P/LINEAR,e,12.0015,349.5897,129.8384,4.085911,0.1193358,0.57410351,277.6652,03/12.0/2022,2000,g 16.0,4.0
# From MPEC 2021-S45
195P/Hill,e,36.3320,243.1255,249.2524,6.505784,0.0593956,0.31376306,286.7487,03/12.0/2022,2000,g  8.5,4.0
# From MPC 92985
196P/Tichy,e,19.2947,24.1254,12.1158,3.806346,0.1327216,0.42868607,329.2700,03/12.0/2022,2000,g 13.5,4.0
# From MPC 94676
197P/LINEAR,e,25.5286,66.3702,188.7483,2.868023,0.2029225,0.62942199,305.0655,03/12.0/2022,2000,g 16.5,2.0
# From NK 1596
198P/ODAS,e,1.3386,358.2475,69.1767,3.597670,0.1444349,0.44377241,171.0033,03/12.0/2022,2000,g  9.0,4.0
# From MPC 75725
199P/Shoemaker,e,24.9320,92.3638,191.7236,5.889803,0.0689530,0.50581208,324.5500,03/12.0/2022,2000,g 10.0,4.0
# From MPEC 2022-C56
200P/Larsen,e,12.0984,234.7704,134.1853,4.943547,0.0896698,0.33268643,85.7585,03/12.0/2022,2000,g  9.0,4.0
# From MPC 93588
201P/LONEOS,e,5.7393,19.7457,41.5477,3.354500,0.1604214,0.63712211,46.4113,03/12.0/2022,2000,g 14.0,4.0
# From MPEC 2021-N06
202P/Scotti,e,2.1107,177.4940,276.5658,4.086602,0.1193055,0.26129771,264.2297,03/12.0/2022,2000,g 13.5,4.0
# From MPEC 2021-S45
203P/Korlevic,e,2.9726,290.3264,154.7839,4.670390,0.0976505,0.31534449,72.0006,03/12.0/2022,2000,g 14.5,2.0
# From MPC 98566
204P/LINEAR-NEAT,e,6.5960,108.5104,356.5962,3.582977,0.1453242,0.48792835,323.7014,03/12.0/2022,2000,g 14.0,4.0
# From MPEC 2021-W31
205P/Giacobini,e,15.3060,179.6019,154.1863,3.543538,0.1477571,0.56820434,8.4656,03/12.0/2022,2000,g 13.0,4.0
# From MPC 75725
206P/Barnard-Boattini,e,33.6347,202.3381,189.5000,3.488867,0.1512437,0.55144910,56.3318,03/12.0/2022,2000,g 19.0,4.0
# From MPC 75725
207P/NEAT,e,10.1945,198.2244,273.0583,3.874456,0.1292373,0.75875353,270.7200,03/12.0/2022,2000,g 16.0,4.0
# From MPEC 2020-W26
208P/McMillan,e,4.4119,36.3403,310.5131,4.043965,0.1211973,0.37407132,251.4824,03/12.0/2022,2000,g 12.5,4.0
# From MPC 90771
209P/LINEAR,e,21.2564,62.7729,152.4480,2.959903,0.1935476,0.67306399,194.2790,03/12.0/2022,2000,g 17.0,2.0
# From MPC105242
210P/Christensen,e,10.2663,93.8202,345.8935,3.163634,0.1751559,0.83334827,123.1503,03/12.0/2022,2000,g 13.5,4.0
# From MPEC 2022-ED3
211P/Hill,e,18.9213,117.1313,4.2814,3.545949,0.1476065,0.34357994,329.5024,03/12.0/2022,2000,g 12.5,4.0
# From MPEC 2021-F20
212P/NEAT,e,22.1841,98.1862,14.0739,3.893098,0.1283101,0.58745781,260.5299,03/12.0/2022,2000,g 17.0,2.0
# From MPC114608
213P/Van Ness,e,10.3811,311.2933,5.6847,3.347132,0.1609514,0.40824244,261.9359,03/12.0/2022,2000,g 10.5,4.0
# From MPC 92986
214P/LINEAR,e,15.1834,348.2493,190.2010,3.619386,0.1431370,0.48586372,331.6220,03/12.0/2022,2000,g 13.0,4.0
# From MPEC 2022-ED3
215P/NEAT,e,10.5793,56.6851,262.2817,4.329197,0.1094191,0.16659621,92.3214,03/12.0/2022,2000,g 11.0,4.0
# From MPC100284
216P/LINEAR,e,9.0651,359.8131,151.4439,3.864787,0.1297226,0.44785163,273.6382,03/12.0/2022,2000,g 13.0,4.0
# From MPEC 2021-N06
217P/LINEAR,e,12.8632,125.4615,246.8757,3.949785,0.1255579,0.68907854,213.1432,03/12.0/2022,2000,g 12.0,4.0
# From MPEC 2020-K19
218P/LINEAR,e,2.7289,175.9802,59.6728,3.091131,0.1813544,0.62234224,95.0650,03/12.0/2022,2000,g 16.0,4.0
# From MPC100284
219P/LINEAR,e,11.5355,230.9556,107.4980,3.648457,0.1414296,0.35411892,260.5098,03/12.0/2022,2000,g 11.0,4.0
# From MPEC 2021-BE3
220P/McNaught,e,8.1288,150.1021,180.5660,3.116469,0.1791471,0.50165101,81.7562,03/12.0/2022,2000,g 15.0,4.0
# From MPEC 2021-J28
221P/LINEAR,e,11.4274,229.6995,40.1253,3.456178,0.1533946,0.49275122,12.8722,03/12.0/2022,2000,g 14.5,4.0
# From MPC 92277
222P/LINEAR,e,5.0984,6.7763,346.2603,2.899180,0.1996601,0.71475765,201.7306,03/12.0/2022,2000,g 20.0,4.0
# From MPEC 2021-S45
223P/Skiff,e,27.0264,346.7706,37.8248,4.158948,0.1162061,0.41626130,132.3605,03/12.0/2022,2000,g 12.0,4.0
# From MPC 75727
224P/LINEAR-NEAT,e,13.3016,40.0504,16.6477,3.446620,0.1540331,0.40642130,328.8983,03/12.0/2022,2000,g 15.5,4.0
# From MPC 75727
225P/LINEAR,e,21.3656,14.2012,3.8860,3.649137,0.1413900,0.63833402,287.3111,03/12.0/2022,2000,g 18.0,4.0
# From MPC106349
226P/Pigott-LINEAR-Kowalski,e,44.0360,54.0053,341.0482,3.766889,0.1348124,0.52876472,271.6520,03/12.0/2022,2000,g 12.5,4.0
# From MPC102956
227P/Catalina-LINEAR,e,6.9753,40.9007,99.6812,3.503436,0.1503013,0.52929121,251.7213,03/12.0/2022,2000,g 16.5,2.0
# From MPEC 2020-L06
228P/LINEAR,e,7.9128,30.9831,115.0345,4.168991,0.1157864,0.17623873,84.8696,03/12.0/2022,2000,g 14.5,2.0
# From MPC106349
229P/Gibbs,e,26.0923,157.9108,223.9915,3.928289,0.1265899,0.37754555,222.0759,03/12.0/2022,2000,g 13.0,4.0
# From MPEC 2022-ED3
230P/LINEAR,e,15.4702,106.9844,313.4301,3.451031,0.1537379,0.54541788,358.8728,03/12.0/2022,2000,g 13.0,4.0
# From MPEC 2020-K19
231P/LINEAR-NEAT,e,12.3239,133.0162,43.9587,4.038274,0.1214536,0.24554338,121.2689,03/12.0/2022,2000,g 14.5,2.0
# From MPC112394
232P/Hill,e,14.6384,56.0165,53.3177,4.477519,0.1040274,0.33432441,111.4559,03/12.0/2022,2000,g 11.5,4.0
# From MPEC 2021-N06
233P/La Sagra,e,11.2855,74.9159,27.0036,3.029540,0.1869128,0.41189157,98.3925,03/12.0/2022,2000,g 15.0,4.0
# From MPC110497
234P/LINEAR,e,11.5350,179.5701,357.2276,3.798675,0.1331239,0.25560038,232.6156,03/12.0/2022,2000,g 12.0,4.0
# From MPC110497
235P/LINEAR,e,9.0583,202.8819,333.4537,3.946196,0.1257292,0.32940057,182.3788,03/12.0/2022,2000,g 12.0,4.0
# From MPC107688
236P/LINEAR,e,16.3423,245.5959,119.2777,3.729302,0.1368557,0.50922324,215.0017,03/12.0/2022,2000,g 14.0,4.0
# From MPEC 2022-ED3
237P/LINEAR,e,14.0147,245.3730,25.2402,3.512260,0.1497352,0.43430939,295.8207,03/12.0/2022,2000,g 14.5,2.0
# From MPC107688
238P/Read,e,1.2641,51.6234,324.2708,3.168490,0.1747534,0.25223111,345.0344,03/12.0/2022,2000,g 14.5,4.0
# From MPEC 2021-F20
239P/LINEAR,e,11.2985,255.9158,220.4134,4.469089,0.1043219,0.63007896,120.7797,03/12.0/2022,2000,g 17.5,2.0
# From MPEC 2021-F20
240P/NEAT,e,23.5190,74.9083,351.9447,3.865546,0.1296844,0.44933626,181.0658,03/12.0/2022,2000,g 12.1,4.0
# From MPEC 2022-ED3
241P/LINEAR,e,21.1060,305.4840,111.4381,4.918724,0.0903494,0.61014145,20.7031,03/12.0/2022,2000,g 13.5,4.0
# From MPEC 2021-S45
242P/Spahr,e,32.5051,180.3830,245.7573,5.491010,0.0765995,0.27841082,281.5182,03/12.0/2022,2000,g  8.0,4.0
# From MPC111774
243P/NEAT,e,7.6405,87.6209,283.5730,3.830542,0.1314661,0.36041206,169.9657,03/12.0/2022,2000,g 12.5,4.0
# From MPEC 2022-ED3
244P/Scotti,e,2.2594,353.9907,93.0571,4.894768,0.0910135,0.19902323,337.2562,03/12.0/2022,2000,g  9.0,4.0
# From MPEC 2022-CN4
245P/WISE,e,21.1954,316.6538,316.8808,4.045854,0.1211124,0.45670406,180.8090,03/12.0/2022,2000,g 14.0,4.0
# From MPEC 2021-WD8
246P/NEAT,e,15.9706,78.6651,176.5913,4.025865,0.1220156,0.28838558,46.5024,03/12.0/2022,2000,g 10.5,4.0
# From MPEC 2021-F20
247P/LINEAR,e,13.6555,54.0154,47.4381,3.968420,0.1246745,0.62432650,149.1993,03/12.0/2022,2000,g 16.5,2.0
# From MPC 75730
248P/Gibbs,e,6.3502,207.7920,209.8528,5.991320,0.0672079,0.63868797,273.7396,03/12.0/2022,2000,g 14.0,4.0
# From MPEC 2021-S45
249P/LINEAR,e,8.3904,239.1310,65.6789,2.763215,0.2145764,0.81996022,133.1475,03/12.0/2022,2000,g 15.5,4.0
# From MPC110497
250P/Larson,e,13.1578,73.4278,46.1550,3.765433,0.1348906,0.39957541,203.1216,03/12.0/2022,2000,g 14.5,4.0
# From MPC104795
251P/LINEAR,e,23.3882,219.3620,31.2832,3.511738,0.1497687,0.50473770,254.6829,03/12.0/2022,2000,g 16.5,2.0
# From MPEC 2021-S45
252P/LINEAR,e,10.4101,190.9388,343.3179,3.049517,0.1850791,0.67183687,45.1055,03/12.0/2022,2000,g 17.5,4.0
# From MPEC 2020-FB5
253P/PANSTARRS,e,4.9435,146.8847,230.6565,3.465806,0.1527558,0.41425981,214.2926,03/12.0/2022,2000,g 14.5,4.0
# From MPEC 2022-ED3
254P/McNaught,e,32.5716,129.1778,219.5705,4.613421,0.0994648,0.31978053,52.5118,03/12.0/2022,2000,g 11.0,4.0
# From MPEC 2021-UA9
255P/Levy,e,13.4123,275.6863,185.9863,2.943662,0.1951516,0.71169048,325.0135,03/12.0/2022,2000,g 14.1,4.0
# From MPEC 2022-C56
256P/LINEAR,e,27.6208,81.3439,124.2208,4.638901,0.0986464,0.41799445,323.9580,03/12.0/2022,2000,g 14.0,2.0
# From MPEC 2021-Y10
257P/Catalina,e,20.2210,207.7284,117.6977,3.762753,0.1350348,0.43033450,73.8978,03/12.0/2022,2000,g 11.5,4.0
# From MPEC 2021-U31
258P/PANSTARRS,e,6.7461,126.2441,25.9103,4.396715,0.1069083,0.20844604,67.5328,03/12.0/2022,2000,g 13.0,4.0
# From MPC106349
259P/Garradd,e,15.8903,51.4464,257.6460,2.730708,0.2184194,0.33876559,6.9026,03/12.0/2022,2000,g 15.5,4.0
# From MPEC 2020-SI8
260P/McNaught,e,15.0584,349.3383,18.4215,3.623123,0.1429155,0.60927911,130.5709,03/12.0/2022,2000,g 13.5,4.0
# From MPEC 2021-J28
261P/Larson,e,6.0737,291.1441,67.1973,3.490446,0.1511412,0.42331654,150.6505,03/12.0/2022,2000,g 14.0,4.0
# From MPC 82322
262P/McNaught-Russell,e,29.2549,217.8719,171.0309,6.873111,0.0546983,0.81600640,185.1993,03/12.0/2022,2000,g 13.5,4.0
# From MPC 89018
263P/Gibbs,e,11.5211,105.5459,34.9432,3.043961,0.1855861,0.59352721,299.7687,03/12.0/2022,2000,g  9.0,4.0
# From MPC114608
264P/Larsen,e,25.2109,220.4504,346.7200,3.890131,0.1284570,0.37540945,122.1002,03/12.0/2022,2000,g 13.0,4.0
# From MPC 79870
265P/LINEAR,e,14.3650,342.9259,33.4541,4.254140,0.1123276,0.64756742,44.4710,03/12.0/2022,2000,g 14.5,4.0
# From MPEC 2021-F20
266P/Christensen,e,3.4270,4.9982,97.7243,3.532883,0.1484261,0.33956074,102.6774,03/12.0/2022,2000,g 14.7,4.0
# From MPC114608
267P/LONEOS,e,6.1408,228.5907,114.1934,3.211433,0.1712599,0.61438473,227.3406,03/12.0/2022,2000,g 19.5,4.0
# From MPC 92277
268P/Bernardi,e,15.9564,127.2174,359.8061,4.553378,0.1014387,0.47786865,256.9760,03/12.0/2022,2000,g 14.0,4.0
# From MPC104795
